[{"OBJECT_NAME":"STARLINK-36969","OBJECT_ID":"2026-050A","EPOCH":"2026-03-19T13:41:02.541120","MEAN_MOTION":15.9734321,"ECCENTRICITY":4.88e-5,"INCLINATION":53.1618,"RA_OF_ASC_NODE":232.5443,"ARG_OF_PERICENTER":318.1927,"MEAN_ANOMALY":41.9065,"EPHEMERIS_TYPE":0,"CLASSIFICATION_TYPE":"U","NORAD_CAT_ID":68167,"ELEMENT_SET_NO":999,"REV_AT_EPOCH":203,"BSTAR":-0.0016788,"MEAN_MOTION_DOT":-0.00762286,"MEAN_MOTION_DDOT":0.00019812},{"OBJECT_NAME":"STARLINK-36984","OBJECT_ID":"2026-050B","EPOCH":"2026-03-19T13:40:45.953184","MEAN_MOTION":15.97468217,"ECCENTRICITY":5.65e-5,"INCLINATION":53.162,"RA_OF_ASC_NODE":232.5441,"ARG_OF_PERICENTER":333.0752,"MEAN_ANOMALY":27.0248,"EPHEMERIS_TYPE":0,"CLASSIFICATION_TYPE":"U","NORAD_CAT_ID":68168,"ELEMENT_SET_NO":999,"REV_AT_EPOCH":203,"BSTAR":-0.0016463,"MEAN_MOTION_DOT":-0.00752821,"MEAN_MOTION_DDOT":0.000194},{"OBJECT_NAME":"STARLINK-37077","OBJECT_ID":"2026-050C","EPOCH":"2026-03-19T13:40:26.349024","MEAN_MOTION":15.97622802,"ECCENTRICITY":7.45e-5,"INCLINATION":53.1619,"RA_OF_ASC_NODE":232.5425,"ARG_OF_PERICENTER":335.0992,"MEAN_ANOMALY":25.0002,"EPHEMERIS_TYPE":0,"CLASSIFICATION_TYPE":"U","NORAD_CAT_ID":68169,"ELEMENT_SET_NO":999,"REV_AT_EPOCH":203,"BSTAR":-0.0016046,"MEAN_MOTION_DOT":-0.00740191,"MEAN_MOTION_DDOT":0.00018853},{"OBJECT_NAME":"STARLINK-37003","OBJECT_ID":"2026-050D","EPOCH":"2026-03-19T13:40:06.896064","MEAN_MOTION":15.97788708,"ECCENTRICITY":4.61e-5,"INCLINATION":53.162,"RA_OF_ASC_NODE":232.5407,"ARG_OF_PERICENTER":327.9149,"MEAN_ANOMALY":32.1853,"EPHEMERIS_TYPE":0,"CLASSIFICATION_TYPE":"U","NORAD_CAT_ID":68170,"ELEMENT_SET_NO":999,"REV_AT_EPOCH":203,"BSTAR":-0.0015382,"MEAN_MOTION_DOT":-0.00716345,"MEAN_MOTION_DDOT":0.00017815},{"OBJECT_NAME":"STARLINK-37034","OBJECT_ID":"2026-050E","EPOCH":"2026-03-19T13:39:46.570464","MEAN_MOTION":15.9791914,"ECCENTRICITY":5.85e-5,"INCLINATION":53.1619,"RA_OF_ASC_NODE":232.5395,"ARG_OF_PERICENTER":340.0636,"MEAN_ANOMALY":20.0371,"EPHEMERIS_TYPE":0,"CLASSIFICATION_TYPE":"U","NORAD_CAT_ID":68171,"ELEMENT_SET_NO":999,"REV_AT_EPOCH":203,"BSTAR":-0.0015903,"MEAN_MOTION_DOT":-0.00745719,"MEAN_MOTION_DDOT":0.00019165},{"OBJECT_NAME":"STARLINK-37031","OBJECT_ID":"2026-050F","EPOCH":"2026-03-19T13:39:25.217568","MEAN_MOTION":15.98076782,"ECCENTRICITY":4.58e-5,"INCLINATION":53.162,"RA_OF_ASC_NODE":232.5378,"ARG_OF_PERICENTER":346.3779,"MEAN_ANOMALY":13.7239,"EPHEMERIS_TYPE":0,"CLASSIFICATION_TYPE":"U","NORAD_CAT_ID":68172,"ELEMENT_SET_NO":999,"REV_AT_EPOCH":203,"BSTAR":-0.0015788,"MEAN_MOTION_DOT":-0.00746879,"MEAN_MOTION_DDOT":0.0001925},{"OBJECT_NAME":"STARLINK-37076","OBJECT_ID":"2026-050G","EPOCH":"2026-03-19T12:09:00.468288","MEAN_MOTION":15.98507778,"ECCENTRICITY":6.45e-5,"INCLINATION":53.1615,"RA_OF_ASC_NODE":232.8571,"ARG_OF_PERICENTER":359.7564,"MEAN_ANOMALY":0.3466,"EPHEMERIS_TYPE":0,"CLASSIFICATION_TYPE":"U","NORAD_CAT_ID":68173,"ELEMENT_SET_NO":999,"REV_AT_EPOCH":202,"BSTAR":-0.0017873,"MEAN_MOTION_DOT":-0.00864982,"MEAN_MOTION_DDOT":0.00025162},{"OBJECT_NAME":"STARLINK-37078","OBJECT_ID":"2026-050H","EPOCH":"2026-03-19T13:38:45.418272","MEAN_MOTION":15.98372202,"ECCENTRICITY":2.61e-5,"INCLINATION":53.1617,"RA_OF_ASC_NODE":232.5342,"ARG_OF_PERICENTER":74.2706,"MEAN_ANOMALY":285.8353,"EPHEMERIS_TYPE":0,"CLASSIFICATION_TYPE":"U","NORAD_CAT_ID":68174,"ELEMENT_SET_NO":999,"REV_AT_EPOCH":203,"BSTAR":-0.0016768,"MEAN_MOTION_DOT":-0.00805867,"MEAN_MOTION_DDOT":0.00022125},{"OBJECT_NAME":"STARLINK-36886","OBJECT_ID":"2026-050J","EPOCH":"2026-03-19T13:38:26.608992","MEAN_MOTION":15.98517353,"ECCENTRICITY":8.12e-5,"INCLINATION":53.1618,"RA_OF_ASC_NODE":232.5329,"ARG_OF_PERICENTER":328.5582,"MEAN_ANOMALY":31.54,"EPHEMERIS_TYPE":0,"CLASSIFICATION_TYPE":"U","NORAD_CAT_ID":68175,"ELEMENT_SET_NO":999,"REV_AT_EPOCH":203,"BSTAR":-0.0014987,"MEAN_MOTION_DOT":-0.00726912,"MEAN_MOTION_DDOT":0.00018427},{"OBJECT_NAME":"STARLINK-36905","OBJECT_ID":"2026-050K","EPOCH":"2026-03-19T13:38:05.675136","MEAN_MOTION":15.98675796,"ECCENTRICITY":7.18e-5,"INCLINATION":53.1619,"RA_OF_ASC_NODE":232.5315,"ARG_OF_PERICENTER":321.9812,"MEAN_ANOMALY":38.1167,"EPHEMERIS_TYPE":0,"CLASSIFICATION_TYPE":"U","NORAD_CAT_ID":68176,"ELEMENT_SET_NO":999,"REV_AT_EPOCH":203,"BSTAR":-0.0014521,"MEAN_MOTION_DOT":-0.00710734,"MEAN_MOTION_DDOT":0.00017733},{"OBJECT_NAME":"STARLINK-36668","OBJECT_ID":"2026-050L","EPOCH":"2026-03-19T13:37:43.637088","MEAN_MOTION":15.98826248,"ECCENTRICITY":6.96e-5,"INCLINATION":53.1621,"RA_OF_ASC_NODE":232.5297,"ARG_OF_PERICENTER":333.7333,"MEAN_ANOMALY":26.3662,"EPHEMERIS_TYPE":0,"CLASSIFICATION_TYPE":"U","NORAD_CAT_ID":68177,"ELEMENT_SET_NO":999,"REV_AT_EPOCH":203,"BSTAR":-0.0014604,"MEAN_MOTION_DOT":-0.00720821,"MEAN_MOTION_DDOT":0.00018212},{"OBJECT_NAME":"STARLINK-36677","OBJECT_ID":"2026-050M","EPOCH":"2026-03-19T13:37:24.300768","MEAN_MOTION":15.9889842,"ECCENTRICITY":9.19e-5,"INCLINATION":53.1619,"RA_OF_ASC_NODE":232.5274,"ARG_OF_PERICENTER":18.8959,"MEAN_ANOMALY":341.2106,"EPHEMERIS_TYPE":0,"CLASSIFICATION_TYPE":"U","NORAD_CAT_ID":68178,"ELEMENT_SET_NO":999,"REV_AT_EPOCH":203,"BSTAR":-0.0018795,"MEAN_MOTION_DOT":-0.00929161,"MEAN_MOTION_DDOT":0.00028745},{"OBJECT_NAME":"STARLINK-37052","OBJECT_ID":"2026-050N","EPOCH":"2026-03-19T13:37:01.873056","MEAN_MOTION":15.99173693,"ECCENTRICITY":8.47e-5,"INCLINATION":53.1613,"RA_OF_ASC_NODE":232.5262,"ARG_OF_PERICENTER":251.3193,"MEAN_ANOMALY":108.7745,"EPHEMERIS_TYPE":0,"CLASSIFICATION_TYPE":"U","NORAD_CAT_ID":68179,"ELEMENT_SET_NO":999,"REV_AT_EPOCH":203,"BSTAR":-0.0013225,"MEAN_MOTION_DOT":-0.00666179,"MEAN_MOTION_DDOT":0.00015892},{"OBJECT_NAME":"STARLINK-37035","OBJECT_ID":"2026-050P","EPOCH":"2026-03-19T13:36:44.886816","MEAN_MOTION":15.99266404,"ECCENTRICITY":5.93e-5,"INCLINATION":53.1621,"RA_OF_ASC_NODE":232.5248,"ARG_OF_PERICENTER":324.9508,"MEAN_ANOMALY":35.1483,"EPHEMERIS_TYPE":0,"CLASSIFICATION_TYPE":"U","NORAD_CAT_ID":68180,"ELEMENT_SET_NO":999,"REV_AT_EPOCH":203,"BSTAR":-0.0013647,"MEAN_MOTION_DOT":-0.0069081,"MEAN_MOTION_DDOT":0.00016965},{"OBJECT_NAME":"STARLINK-37032","OBJECT_ID":"2026-050Q","EPOCH":"2026-03-19T13:36:22.448736","MEAN_MOTION":15.99422141,"ECCENTRICITY":7.99e-5,"INCLINATION":53.1621,"RA_OF_ASC_NODE":232.5236,"ARG_OF_PERICENTER":332.8854,"MEAN_ANOMALY":27.2135,"EPHEMERIS_TYPE":0,"CLASSIFICATION_TYPE":"U","NORAD_CAT_ID":68181,"ELEMENT_SET_NO":999,"REV_AT_EPOCH":203,"BSTAR":-0.0013712,"MEAN_MOTION_DOT":-0.00700217,"MEAN_MOTION_DDOT":0.00017407},{"OBJECT_NAME":"STARLINK-37082","OBJECT_ID":"2026-050R","EPOCH":"2026-03-19T13:36:01.596960","MEAN_MOTION":15.99579072,"ECCENTRICITY":9.64e-5,"INCLINATION":53.1619,"RA_OF_ASC_NODE":232.522,"ARG_OF_PERICENTER":324.698,"MEAN_ANOMALY":35.3987,"EPHEMERIS_TYPE":0,"CLASSIFICATION_TYPE":"U","NORAD_CAT_ID":68182,"ELEMENT_SET_NO":999,"REV_AT_EPOCH":203,"BSTAR":-0.0013413,"MEAN_MOTION_DOT":-0.00691167,"MEAN_MOTION_DDOT":0.00017038}]
